{
  "type": "FeatureCollection",
  "features": [
    {
      "type": "Feature",
      "properties": {
        "norad_id": 60182,
        "name": "ALOS-4 (DAICHI-4)",
        "group": "resource",
        "lat": 79.6341020583313,
        "lon": 40.31387446843783,
        "alt_km": 622.6673920381572,
        "timestamp": "2025-12-21T03:56:50.512426+00:00",
        "meta_object_name": "ALOS-4 (DAICHI-4)",
        "meta_object_id": "2024-123A",
        "meta_epoch": "2025-12-20T19:27:23.065632",
        "meta_mean_motion": 14.79476706,
        "meta_eccentricity": 0.0001388,
        "meta_inclination": 97.9224,
        "meta_ra_of_asc_node": 89.5428,
        "meta_arg_of_pericenter": 101.3368,
        "meta_mean_anomaly": 258.8,
        "meta_ephemeris_type": 0,
        "meta_classification_type": "U",
        "meta_norad_cat_id": 60182,
        "meta_element_set_no": 999,
        "meta_rev_at_epoch": 7950,
        "meta_bstar": 0.00018387,
        "meta_mean_motion_dot": 1.322e-05,
        "meta_mean_motion_ddot": 0,
        "tle_line1": "1 60182U 24123A   25354.81068363  .00001322  00000+0  18387-3 0  9990",
        "tle_line2": "2 60182  97.9224  89.5428 0001388 101.3368 258.8000 14.79476706 79505"
      },
      "geometry": {
        "type": "Point",
        "coordinates": [
          40.31387446843783,
          79.6341020583313
        ]
      }
    },
    {
      "type": "Feature",
      "properties": {
        "norad_id": 60452,
        "name": "LEGION 3",
        "group": "resource",
        "lat": -21.76950164290999,
        "lon": 108.51966842284406,
        "alt_km": 511.64367910326564,
        "timestamp": "2025-12-21T03:56:50.512435+00:00",
        "meta_object_name": "LEGION 3",
        "meta_object_id": "2024-146A",
        "meta_epoch": "2025-12-20T19:06:32.220000",
        "meta_mean_motion": 15.15837973,
        "meta_eccentricity": 0.0015676,
        "meta_inclination": 45.0018,
        "meta_ra_of_asc_node": 266.9415,
        "meta_arg_of_pericenter": 241.9988,
        "meta_mean_anomaly": 117.9305,
        "meta_ephemeris_type": 0,
        "meta_classification_type": "U",
        "meta_norad_cat_id": 60452,
        "meta_element_set_no": 999,
        "meta_rev_at_epoch": 7495,
        "meta_bstar": 0.00016083,
        "meta_mean_motion_dot": 2.87e-05,
        "meta_mean_motion_ddot": 0,
        "tle_line1": "1 60452U 24146A   25354.79620625  .00002870  00000+0  16083-3 0  9997",
        "tle_line2": "2 60452  45.0018 266.9415 0015676 241.9988 117.9305 15.15837973 74956"
      },
      "geometry": {
        "type": "Point",
        "coordinates": [
          108.51966842284406,
          -21.76950164290999
        ]
      }
    },
    {
      "type": "Feature",
      "properties": {
        "norad_id": 60453,
        "name": "LEGION 4",
        "group": "resource",
        "lat": -20.89946619626538,
        "lon": -160.82677805816817,
        "alt_km": 525.5123966590081,
        "timestamp": "2025-12-21T03:56:50.512445+00:00",
        "meta_object_name": "LEGION 4",
        "meta_object_id": "2024-146B",
        "meta_epoch": "2025-12-20T09:37:35.920416",
        "meta_mean_motion": 15.15898192,
        "meta_eccentricity": 0.0008728,
        "meta_inclination": 45.0393,
        "meta_ra_of_asc_node": 0.8332,
        "meta_arg_of_pericenter": 352.3062,
        "meta_mean_anomaly": 7.7682,
        "meta_ephemeris_type": 0,
        "meta_classification_type": "U",
        "meta_norad_cat_id": 60453,
        "meta_element_set_no": 999,
        "meta_rev_at_epoch": 7374,
        "meta_bstar": 0.00019574392,
        "meta_mean_motion_dot": 3.551e-05,
        "meta_mean_motion_ddot": 0,
        "tle_line1": "1 60453U 24146B   25354.40111019  .00003551  00000+0  19574-3 0  9993",
        "tle_line2": "2 60453  45.0393   0.8332 0008728 352.3062   7.7682 15.15898192 73746"
      },
      "geometry": {
        "type": "Point",
        "coordinates": [
          -160.82677805816817,
          -20.89946619626538
        ]
      }
    },
    {
      "type": "Feature",
      "properties": {
        "norad_id": 60989,
        "name": "SENTINEL-2C",
        "group": "resource",
        "lat": 5.691988659234317,
        "lon": -111.61373079348017,
        "alt_km": 790.997133639823,
        "timestamp": "2025-12-21T03:56:50.512454+00:00",
        "meta_object_name": "SENTINEL-2C",
        "meta_object_id": "2024-157A",
        "meta_epoch": "2025-12-20T18:44:40.814880",
        "meta_mean_motion": 14.30820493,
        "meta_eccentricity": 0.0001197,
        "meta_inclination": 98.5674,
        "meta_ra_of_asc_node": 67.1475,
        "meta_arg_of_pericenter": 95.5645,
        "meta_mean_anomaly": 264.5674,
        "meta_ephemeris_type": 0,
        "meta_classification_type": "U",
        "meta_norad_cat_id": 60989,
        "meta_element_set_no": 999,
        "meta_rev_at_epoch": 6747,
        "meta_bstar": 5.5963e-05,
        "meta_mean_motion_dot": 1.03e-06,
        "meta_mean_motion_ddot": 0,
        "tle_line1": "1 60989U 24157A   25354.78102795  .00000103  00000+0  55963-4 0  9994",
        "tle_line2": "2 60989  98.5674  67.1475 0001197  95.5645 264.5674 14.30820493 67477"
      },
      "geometry": {
        "type": "Point",
        "coordinates": [
          -111.61373079348017,
          5.691988659234317
        ]
      }
    },
    {
      "type": "Feature",
      "properties": {
        "norad_id": 61735,
        "name": "IONOSFERA-M 1",
        "group": "resource",
        "lat": -15.074607812463164,
        "lon": 42.57309521578155,
        "alt_km": 821.2456400946303,
        "timestamp": "2025-12-21T03:56:50.512463+00:00",
        "meta_object_name": "IONOSFERA-M 1",
        "meta_object_id": "2024-199A",
        "meta_epoch": "2025-12-20T21:58:09.849792",
        "meta_mean_motion": 14.22715699,
        "meta_eccentricity": 5.66e-05,
        "meta_inclination": 98.7398,
        "meta_ra_of_asc_node": 224.7007,
        "meta_arg_of_pericenter": 11.6218,
        "meta_mean_anomaly": 348.4972,
        "meta_ephemeris_type": 0,
        "meta_classification_type": "U",
        "meta_norad_cat_id": 61735,
        "meta_element_set_no": 999,
        "meta_rev_at_epoch": 10235,
        "meta_bstar": 4.0368e-05,
        "meta_mean_motion_dot": 4.6e-07,
        "meta_mean_motion_ddot": 0,
        "tle_line1": "1 61735U 24199A   25354.91539178  .00000046  00000+0  40368-4 0  9993",
        "tle_line2": "2 61735  98.7398 224.7007 0000566  11.6218 348.4972 14.22715699102350"
      },
      "geometry": {
        "type": "Point",
        "coordinates": [
          42.57309521578155,
          -15.074607812463164
        ]
      }
    },
    {
      "type": "Feature",
      "properties": {
        "norad_id": 61736,
        "name": "IONOSFERA-M 2",
        "group": "resource",
        "lat": 17.5274797418122,
        "lon": -137.92466518170767,
        "alt_km": 816.368284498446,
        "timestamp": "2025-12-21T03:56:50.512472+00:00",
        "meta_object_name": "IONOSFERA-M 2",
        "meta_object_id": "2024-199B",
        "meta_epoch": "2025-12-20T21:06:45.978048",
        "meta_mean_motion": 14.22717864,
        "meta_eccentricity": 0.0001815,
        "meta_inclination": 98.7397,
        "meta_ra_of_asc_node": 224.5776,
        "meta_arg_of_pericenter": 100.1206,
        "meta_mean_anomaly": 260.0177,
        "meta_ephemeris_type": 0,
        "meta_classification_type": "U",
        "meta_norad_cat_id": 61736,
        "meta_element_set_no": 999,
        "meta_rev_at_epoch": 10547,
        "meta_bstar": 4.2056e-05,
        "meta_mean_motion_dot": 5e-07,
        "meta_mean_motion_ddot": 0,
        "tle_line1": "1 61736U 24199B   25354.87969882  .00000050  00000+0  42056-4 0  9999",
        "tle_line2": "2 61736  98.7397 224.5776 0001815 100.1206 260.0177 14.22717864105478"
      },
      "geometry": {
        "type": "Point",
        "coordinates": [
          -137.92466518170767,
          17.5274797418122
        ]
      }
    },
    {
      "type": "Feature",
      "properties": {
        "norad_id": 63772,
        "name": "BIOMASS",
        "group": "resource",
        "lat": 52.03698404881691,
        "lon": 10.528355430776173,
        "alt_km": 663.5781326791912,
        "timestamp": "2025-12-21T03:56:50.512482+00:00",
        "meta_object_name": "BIOMASS",
        "meta_object_id": "2025-090A",
        "meta_epoch": "2025-12-20T11:00:22.690080",
        "meta_mean_motion": 14.67537273,
        "meta_eccentricity": 0.00011035,
        "meta_inclination": 98.07,
        "meta_ra_of_asc_node": 179.356,
        "meta_arg_of_pericenter": 81.418,
        "meta_mean_anomaly": 278.715,
        "meta_ephemeris_type": 0,
        "meta_classification_type": "U",
        "meta_norad_cat_id": 63772,
        "meta_element_set_no": 999,
        "meta_rev_at_epoch": 3447,
        "meta_bstar": 0.0001671094,
        "meta_mean_motion_dot": 9e-06,
        "meta_mean_motion_ddot": 0,
        "tle_line1": "1 63772U 25090A   25354.45859595  .00000900  00000+0  16711-3 0  9997",
        "tle_line2": "2 63772  98.0700 179.3560 0001103  81.4180 278.7150 14.67537273 34472"
      },
      "geometry": {
        "type": "Point",
        "coordinates": [
          10.528355430776173,
          52.03698404881691
        ]
      }
    }
  ]
}